MAX VALIER SAT          
1 42778U 17036P   23245.57979967  .00025609  00000+0  58549-3 0  9995
2 42778  97.1467 278.7728 0008565 163.8223 196.3300 15.42776246344641
RADFXSAT (FOX-1B)       
1 43017U 17073E   23245.58672640  .00005483  00000+0  37815-3 0  9993
2 43017  97.6175 126.8877 0229981 173.0454 187.4050 14.87170218312680
FOX-1D (AO-92)          
1 43137U 18004AC  23245.45692820  .00051578  00000+0  84015-3 0  9999
2 43137  97.3214 325.8054 0004979 204.3926 155.7092 15.52468525314277
DIWATA-2B               
1 43678U 18084H   23245.56807590  .00001923  00000+0  18743-3 0  9995
2 43678  98.0340  31.1576 0008160 265.5517  94.4770 14.93701180263818
ES'HAIL 2               
1 43700U 18090A   23245.36299426  .00000129  00000+0  00000+0 0  9999
2 43700   0.0113 121.0960 0002631  76.3721 300.2597  1.00273551 17466
FOX-1CLIFF (AO-95)      
1 43770U 18099N   23245.12691413  .00005864  00000+0  46664-3 0  9992
2 43770  97.5758 304.6214 0013372 249.0523 110.9270 15.00705861259149
ITASAT 1                
1 43786U 18099AE  23245.48269231  .00003791  00000+0  30717-3 0  9996
2 43786  97.5677 305.9854 0016066 228.0594 131.9261 15.00196453259232
JY1SAT (JO-97)          
1 43803U 18099AX  23245.42920453  .00005992  00000+0  46370-3 0  9997
2 43803  97.5688 306.0784 0012252 191.2066 168.8888 15.01772998259280
UWE-4                   
1 43880U 18111E   23245.46713462  .00006560  00000+0  48804-3 0  9997
2 43880  97.6273 149.4698 0015895 270.3473  89.5931 15.03199913255978
NEXUS (FO-99)           
1 43937U 19003F   23245.54845598  .00107090  00000+0  10879-2 0  9996
2 43937  97.0772 272.3653 0006331   7.8525 352.2833 15.64824590258092
JAISAT-1                
1 44419U 19038F   23245.48692219  .00029108  00000+0  87506-3 0  9998
2 44419  97.6784 230.0219 0014873  40.6933 319.5417 15.34250033230371
DUCHIFAT-3              
1 44854U 19089C   23245.46794731  .00009267  00000+0  60142-3 0  9998
2 44854  36.9626 348.9692 0008167 231.8913 128.1095 15.07580022204562
CAS-6 (TIANQIN 1)       
1 44881U 19093C   23245.50426231  .00001159  00000+0  14987-3 0  9993
2 44881  97.8576 322.6340 0014681 180.5397 179.5804 14.82715259200259
RS-44 & BREEZE-KM R/B   
1 44909U 19096E   23245.54433991  .00000025  00000+0  58202-4 0  9992
2 44909  82.5199 296.5503 0217468   6.4229 353.9579 12.79722284172053
BY70-2                  
1 45857U 20042B   23245.53806147  .00020159  00000+0  19098-2 0  9992
2 45857  97.9221 325.8630 0009326 117.2750 242.9420 14.93599319171073
SALSAT                  
1 46495U 20068K   23245.48488970  .00005429  00000+0  35165-3 0  9990
2 46495  97.7747 194.3665 0014243 211.5059 148.5317 15.08485494160725
RADFXSAT-2 (AO-109)     
1 47311U 21002C   23245.38586052  .00031567  00000+0  70323-3 0  9993
2 47311  60.6784 120.8130 0008816 335.4316  24.6360 15.43421236146184
UVSQ-SAT                
1 47438U 21006AB  23245.42757887  .00017614  00000+0  66842-3 0  9996
2 47438  97.3766 301.5254 0010193 161.3041 198.8575 15.26858999144426
LEDSAT                  
1 49069U 21073D   23245.47156782  .00010117  00000+0  53369-3 0  9995
2 49069  97.4765 315.0872 0022844 209.4755 150.5191 15.15521176112602
XW-3 (CAS-9)            
1 50466U 21131B   23245.49146334  .00000696  00000+0  23962-3 0  9994
2 50466  98.5491 326.7916 0003086 266.2448  93.8386 14.39028493 88479
TEVEL-3                 
1 50988U 22002E   23245.45573457  .00022633  00000+0  82057-3 0  9992
2 50988  97.4264 312.0419 0005695 326.3140  33.7736 15.28348373 90550
TEVEL-8                 
1 50989U 22002F   23245.47801536  .00022885  00000+0  83150-3 0  9991
2 50989  97.4279 312.1318 0005735 325.0548  35.0314 15.28274775 90550
TEVEL-5                 
1 50998U 22002Q   23245.48610134  .00023667  00000+0  83252-3 0  9996
2 50998  97.4257 312.5551 0006692 317.4776  42.5945 15.29324354 90597
TEVEL-6                 
1 50999U 22002R   23245.48467294  .00023762  00000+0  83593-3 0  9998
2 50999  97.4255 312.5467 0006709 317.1291  42.9426 15.29320573 90597
TEVEL-1                 
1 51013U 22002AF  23245.46811153  .00022810  00000+0  82836-3 0  9993
2 51013  97.4255 311.9837 0005623 325.8435  34.2442 15.28293018 90559
TEVEL-7                 
1 51062U 22002CG  23245.47787272  .00022871  00000+0  83035-3 0  9991
2 51062  97.4275 312.1028 0005714 324.5256  35.5603 15.28301177 90557
TEVEL-4                 
1 51063U 22002CH  23245.48704251  .00022406  00000+0  81528-3 0  9998
2 51063  97.4272 312.0868 0005711 324.3640  35.7217 15.28231299 90558
TEVEL-2                 
1 51069U 22002CP  23245.45726754  .00021446  00000+0  77762-3 0  9991
2 51069  97.4261 312.0126 0005642 326.1135  33.9743 15.28355752 90556
GREENCUBE               
1 53106U 22080B   23241.35995544 -.00000003  00000+0  00000+0 0  9995
2 53106  70.1509 294.2974 0008593 172.8952 187.1830  6.42557086 26453
CYCLOPS (RS29S SXC3-21*)
1 53373U 22096D   23245.50985836  .00043363  00000+0  92905-3 0  9996
2 53373  97.4030 152.9580 0003184 102.8813 257.2791 15.44636143 59605
MONITOR-1 (RS32S SXC3-*)
1 53374U 22096E   23245.53450805  .00041700  00000+0  93754-3 0  9999
2 53374  97.4003 152.7041 0003038 115.0188 245.1375 15.43212600 59594
KUZBASS-300 (RS34S SXC*)
1 53375U 22096F   23245.54596549  .00031115  00000+0  77424-3 0  9992
2 53375  97.4041 152.1563 0002561 112.7560 247.3956 15.40215476 59554
UTMN (RS23S SXC3-216)   
1 53376U 22096G   23245.53819823  .00033137  00000+0  80462-3 0  9997
2 53376  97.4035 152.3077 0002728 106.5207 253.6340 15.40946612 59565
MIET-AIS (RS28S SXC3-2*)
1 53377U 22096H   23245.52212232  .00024828  00000+0  63582-3 0  9999
2 53377  97.4050 152.0526 0002581 113.6851 246.4665 15.39382001 59542
KAI-1 (RS26S)           
1 53378U 22096J   23245.51568421  .00022670  00000+0  61888-3 0  9993
2 53378  97.4068 151.6359 0002434 112.1728 247.9775 15.37428732 59510
ISOI (RS19S SXC3-219)   
1 53381U 22096M   23245.55513002  .00029753  00000+0  73704-3 0  9995
2 53381  97.4042 152.4363 0005288 118.4690 241.7089 15.40351252 59579
CUBESX-HSE-2 (RS21S)    
1 53383U 22096P   23245.49855274  .00030747  00000+0  74233-3 0  9993
2 53383  97.4039 152.5243 0005810 119.4199 240.7628 15.41122478 59576
SIREN (RS30S SXC3-217)  
1 53384U 22096Q   23245.55609632  .00025785  00000+0  66884-3 0  9995
2 53384  97.4055 152.1713 0005772 119.0070 241.1755 15.38968541 59553
GEOSCAN-EDELVEIS (RS20S)
1 53385U 22096R   23245.52539865  .00046943  00000+0  94702-3 0  9992
2 53385  97.4015 153.6657 0007142 111.3608 248.8404 15.46364625 59689
VIZARD (RS33S SXC3-215) 
1 53386U 22096S   23245.51888999  .00073181  00000+0  11743-2 0  9994
2 53386  97.4015 154.8995 0007824 114.3395 245.8675 15.52776068 59751
CAS-5A (FO-118)         
1 54684U 22167C   23245.55500476  .00012281  00000+0  64235-3 0  9999
2 54684  97.5725  22.7449 0013721  70.6618 289.6096 15.15919662 40395
STRATOSAT-TK 1 (RS52S)  
1 57167U 23091B   23245.55782309  .00008940  00000+0  64581-3 0  9993
2 57167  97.6578 295.6173 0018108  27.9627 332.2568 15.04172975 10061
UMKA 1 (RS40S)          
1 57172U 23091G   23245.49417408  .00004819  00000+0  35347-3 0  9996
2 57172  97.6575 295.5476 0018366  26.7920 333.4250 15.03841574 10055
CUBESX-HSE 3 (RS42S)    
1 57178U 23091N   23245.49928578  .00006209  00000+0  45416-3 0  9990
2 57178  97.6602 295.5763 0019236  21.4211 338.7815 15.03814682 10058
MONITOR-4 (RS57S)       
1 57182U 23091S   23245.50226813  .00005617  00000+0  41230-3 0  9992
2 57182  97.6588 295.5636 0019542  22.2518 337.9552 15.03720750 10055
MONITOR-2 (RS39S)       
1 57184U 23091U   23245.53148157  .00003409  00000+0  24755-3 0  9991
2 57184  97.6619 295.6786 0015522  20.5088 339.6758 15.04463745 10063
SVYATOBOR 1 (RS60S)     
1 57187U 23091X   23245.52104676  .00004235  00000+0  30388-3 0  9998
2 57187  97.6612 295.6930 0015131  18.2740 341.9027 15.04780812 10067
VIZARD-METEO (RS38S)    
1 57189U 23091Z   23245.50573199  .00005877  00000+0  41554-3 0  9998
2 57189  97.6594 295.7056 0013960  15.4952 344.6699 15.05182974 10061
NANOZOND 1 (RS49S)      
1 57190U 23091AA  23245.49430587  .00008560  00000+0  59702-3 0  9997
2 57190  97.6577 295.6929 0012691  22.3715 337.8062 15.05572302 10062
POLYTECH-UNIVERSE 3 (R*)
1 57191U 23091AB  23245.50319517  .00003889  00000+0  28791-3 0  9992
2 57191  97.6562 295.5367 0019137  26.9105 333.3108 15.03596745 10053
UTMN 2 (RS27S)          
1 57203U 23091AP  23245.50952594  .00004992  00000+0  35468-3 0  9999
2 57203  97.6593 295.7008 0014290  15.8301 344.3369 15.05073144 10062
ARCCUBE 1 (RS25S)       
1 57205U 23091AR  23245.49535982  .00009205  00000+0  64089-3 0  9990
2 57205  97.6557 295.6777 0013032  24.0112 336.1719 15.05610533 10068
KUZGTU 1 (RS47S)        
1 57217U 23091AV  23245.43096828  .00006123  00000+0  44764-3 0  9992
2 57217  97.6580 295.4913 0019148  23.0188 337.1891 15.03843752 10042
